[
{
"CCSDS_OMM_VERS": "2.0",
"COMMENT": "GENERATED VIA SPACE-TRACK.ORG API",
"CREATION_DATE": "2025-03-18T22:56:59",
"ORIGINATOR": "18 SPCS",
"OBJECT_NAME": "COSMOS 2475 (GLONASS)",
"OBJECT_ID": "2011-064C",
"CENTER_NAME": "EARTH",
"REF_FRAME": "TEME",
"TIME_SYSTEM": "UTC",
"MEAN_ELEMENT_THEORY": "SGP4",
"EPOCH": "2025-03-18T19:05:50.841312",
"MEAN_MOTION": "2.13101804",
"ECCENTRICITY": "0.00275280",
"INCLINATION": "65.0309",
"RA_OF_ASC_NODE": "88.3671",
"ARG_OF_PERICENTER": "255.5440",
"MEAN_ANOMALY": "245.1151",
"EPHEMERIS_TYPE": "0",
"CLASSIFICATION_TYPE": "U",
"NORAD_CAT_ID": "37869",
"ELEMENT_SET_NO": "999",
"REV_AT_EPOCH": "10405",
"BSTAR": "0.00000000000000",
"MEAN_MOTION_DOT": "0.00000029",
"MEAN_MOTION_DDOT": "0.0000000000000",
"SEMIMAJOR_AXIS": "25508.040",
"PERIOD": "675.733",
"APOAPSIS": "19200.124",
"PERIAPSIS": "19059.687",
"OBJECT_TYPE": "PAYLOAD",
"RCS_SIZE": "LARGE",
"COUNTRY_CODE": "CIS",
"LAUNCH_DATE": "2011-11-04",
"SITE": "TTMTR",
"DECAY_DATE": null,
"FILE": "4673343",
"GP_ID": "283435548",
"TLE_LINE0": "0 COSMOS 2475 (GLONASS)",
"TLE_LINE1": "1 37869U 11064C   25077.79572733  .00000029  00000-0  00000+0 0  9999",
"TLE_LINE2": "2 37869  65.0309  88.3671 0027528 255.5440 245.1151  2.13101804104059"
},
{
"CCSDS_OMM_VERS": "2.0",
"COMMENT": "GENERATED VIA SPACE-TRACK.ORG API",
"CREATION_DATE": "2025-03-19T17:43:14",
"ORIGINATOR": "18 SPCS",
"OBJECT_NAME": "COSMOS 2501 (GLONASS)",
"OBJECT_ID": "2014-075A",
"CENTER_NAME": "EARTH",
"REF_FRAME": "TEME",
"TIME_SYSTEM": "UTC",
"MEAN_ELEMENT_THEORY": "SGP4",
"EPOCH": "2025-03-18T15:35:46.157856",
"MEAN_MOTION": "2.13101407",
"ECCENTRICITY": "0.00200200",
"INCLINATION": "63.6173",
"RA_OF_ASC_NODE": "206.1463",
"ARG_OF_PERICENTER": "205.9812",
"MEAN_ANOMALY": "153.9018",
"EPHEMERIS_TYPE": "0",
"CLASSIFICATION_TYPE": "U",
"NORAD_CAT_ID": "40315",
"ELEMENT_SET_NO": "999",
"REV_AT_EPOCH": "8014",
"BSTAR": "0.00000000000000",
"MEAN_MOTION_DOT": "0.00000035",
"MEAN_MOTION_DDOT": "0.0000000000000",
"SEMIMAJOR_AXIS": "25508.072",
"PERIOD": "675.735",
"APOAPSIS": "19181.004",
"PERIAPSIS": "19078.870",
"OBJECT_TYPE": "PAYLOAD",
"RCS_SIZE": "LARGE",
"COUNTRY_CODE": "CIS",
"LAUNCH_DATE": "2014-11-30",
"SITE": "PKMTR",
"DECAY_DATE": null,
"FILE": "4674121",
"GP_ID": "283498642",
"TLE_LINE0": "0 COSMOS 2501 (GLONASS)",
"TLE_LINE1": "1 40315U 14075A   25077.64983979  .00000035  00000-0  00000-0 0  9994",
"TLE_LINE2": "2 40315  63.6173 206.1463 0020020 205.9812 153.9018  2.13101407 80143"
},
{
"CCSDS_OMM_VERS": "2.0",
"COMMENT": "GENERATED VIA SPACE-TRACK.ORG API",
"CREATION_DATE": "2025-03-18T14:36:18",
"ORIGINATOR": "18 SPCS",
"OBJECT_NAME": "COSMOS 2527 (GLONASS)",
"OBJECT_ID": "2018-053A",
"CENTER_NAME": "EARTH",
"REF_FRAME": "TEME",
"TIME_SYSTEM": "UTC",
"MEAN_ELEMENT_THEORY": "SGP4",
"EPOCH": "2025-03-18T10:22:30.604224",
"MEAN_MOTION": "2.13102344",
"ECCENTRICITY": "0.00097610",
"INCLINATION": "65.3308",
"RA_OF_ASC_NODE": "89.1369",
"ARG_OF_PERICENTER": "245.5324",
"MEAN_ANOMALY": "114.4011",
"EPHEMERIS_TYPE": "0",
"CLASSIFICATION_TYPE": "U",
"NORAD_CAT_ID": "43508",
"ELEMENT_SET_NO": "999",
"REV_AT_EPOCH": "5256",
"BSTAR": "0.00000000000000",
"MEAN_MOTION_DOT": "0.00000029",
"MEAN_MOTION_DDOT": "0.0000000000000",
"SEMIMAJOR_AXIS": "25507.997",
"PERIOD": "675.732",
"APOAPSIS": "19154.760",
"PERIAPSIS": "19104.964",
"OBJECT_TYPE": "PAYLOAD",
"RCS_SIZE": "LARGE",
"COUNTRY_CODE": "CIS",
"LAUNCH_DATE": "2018-06-16",
"SITE": "PKMTR",
"DECAY_DATE": null,
"FILE": "4672881",
"GP_ID": "283396071",
"TLE_LINE0": "0 COSMOS 2527 (GLONASS)",
"TLE_LINE1": "1 43508U 18053A   25077.43229866  .00000029  00000-0  00000+0 0  9998",
"TLE_LINE2": "2 43508  65.3308  89.1369 0009761 245.5324 114.4011  2.13102344 52561"
},
{
"CCSDS_OMM_VERS": "2.0",
"COMMENT": "GENERATED VIA SPACE-TRACK.ORG API",
"CREATION_DATE": "2025-03-18T19:01:07",
"ORIGINATOR": "18 SPCS",
"OBJECT_NAME": "COSMOS 2456 (GLONASS)",
"OBJECT_ID": "2009-070A",
"CENTER_NAME": "EARTH",
"REF_FRAME": "TEME",
"TIME_SYSTEM": "UTC",
"MEAN_ELEMENT_THEORY": "SGP4",
"EPOCH": "2025-03-18T07:19:25.506912",
"MEAN_MOTION": "2.13103755",
"ECCENTRICITY": "0.00064310",
"INCLINATION": "64.7495",
"RA_OF_ASC_NODE": "86.5549",
"ARG_OF_PERICENTER": "304.4671",
"MEAN_ANOMALY": "132.5894",
"EPHEMERIS_TYPE": "0",
"CLASSIFICATION_TYPE": "U",
"NORAD_CAT_ID": "36111",
"ELEMENT_SET_NO": "999",
"REV_AT_EPOCH": "11871",
"BSTAR": "0.00000000000000",
"MEAN_MOTION_DOT": "0.00000025",
"MEAN_MOTION_DDOT": "0.0000000000000",
"SEMIMAJOR_AXIS": "25507.884",
"PERIOD": "675.727",
"APOAPSIS": "19146.154",
"PERIAPSIS": "19113.345",
"OBJECT_TYPE": "PAYLOAD",
"RCS_SIZE": "LARGE",
"COUNTRY_CODE": "CIS",
"LAUNCH_DATE": "2009-12-14",
"SITE": "TTMTR",
"DECAY_DATE": null,
"FILE": "4673118",
"GP_ID": "283414082",
"TLE_LINE0": "0 COSMOS 2456 (GLONASS)",
"TLE_LINE1": "1 36111U 09070A   25077.30515633  .00000025  00000-0  00000-0 0  9992",
"TLE_LINE2": "2 36111  64.7495  86.5549 0006431 304.4671 132.5894  2.13103755118712"
},
{
"CCSDS_OMM_VERS": "2.0",
"COMMENT": "GENERATED VIA SPACE-TRACK.ORG API",
"CREATION_DATE": "2025-03-19T02:27:03",
"ORIGINATOR": "18 SPCS",
"OBJECT_NAME": "COSMOS 2460 (GLONASS)",
"OBJECT_ID": "2010-007C",
"CENTER_NAME": "EARTH",
"REF_FRAME": "TEME",
"TIME_SYSTEM": "UTC",
"MEAN_ELEMENT_THEORY": "SGP4",
"EPOCH": "2025-03-18T07:18:26.818848",
"MEAN_MOTION": "2.13106269",
"ECCENTRICITY": "0.00021390",
"INCLINATION": "65.6691",
"RA_OF_ASC_NODE": "329.8532",
"ARG_OF_PERICENTER": "18.0909",
"MEAN_ANOMALY": "185.6081",
"EPHEMERIS_TYPE": "0",
"CLASSIFICATION_TYPE": "U",
"NORAD_CAT_ID": "36402",
"ELEMENT_SET_NO": "999",
"REV_AT_EPOCH": "11701",
"BSTAR": "0.00000000000000",
"MEAN_MOTION_DOT": "-0.00000058",
"MEAN_MOTION_DDOT": "0.0000000000000",
"SEMIMAJOR_AXIS": "25507.684",
"PERIOD": "675.719",
"APOAPSIS": "19135.005",
"PERIAPSIS": "19124.093",
"OBJECT_TYPE": "PAYLOAD",
"RCS_SIZE": "LARGE",
"COUNTRY_CODE": "CIS",
"LAUNCH_DATE": "2010-03-01",
"SITE": "TTMTR",
"DECAY_DATE": null,
"FILE": "4673449",
"GP_ID": "283451119",
"TLE_LINE0": "0 COSMOS 2460 (GLONASS)",
"TLE_LINE1": "1 36402U 10007C   25077.30447707 -.00000058  00000-0  00000-0 0  9990",
"TLE_LINE2": "2 36402  65.6691 329.8532 0002139  18.0909 185.6081  2.13106269117013"
},
{
"CCSDS_OMM_VERS": "2.0",
"COMMENT": "GENERATED VIA SPACE-TRACK.ORG API",
"CREATION_DATE": "2025-03-18T19:01:07",
"ORIGINATOR": "18 SPCS",
"OBJECT_NAME": "COSMOS 2485 (GLONASS)",
"OBJECT_ID": "2013-019A",
"CENTER_NAME": "EARTH",
"REF_FRAME": "TEME",
"TIME_SYSTEM": "UTC",
"MEAN_ELEMENT_THEORY": "SGP4",
"EPOCH": "2025-03-18T06:16:25.351392",
"MEAN_MOTION": "2.13104558",
"ECCENTRICITY": "0.00250550",
"INCLINATION": "65.1717",
"RA_OF_ASC_NODE": "88.9335",
"ARG_OF_PERICENTER": "237.7047",
"MEAN_ANOMALY": "122.0877",
"EPHEMERIS_TYPE": "0",
"CLASSIFICATION_TYPE": "U",
"NORAD_CAT_ID": "39155",
"ELEMENT_SET_NO": "999",
"REV_AT_EPOCH": "9256",
"BSTAR": "0.00000000000000",
"MEAN_MOTION_DOT": "0.00000028",
"MEAN_MOTION_DDOT": "0.0000000000000",
"SEMIMAJOR_AXIS": "25507.820",
"PERIOD": "675.725",
"APOAPSIS": "19193.595",
"PERIAPSIS": "19065.775",
"OBJECT_TYPE": "PAYLOAD",
"RCS_SIZE": "LARGE",
"COUNTRY_CODE": "CIS",
"LAUNCH_DATE": "2013-04-26",
"SITE": "PKMTR",
"DECAY_DATE": null,
"FILE": "4673118",
"GP_ID": "283415925",
"TLE_LINE0": "0 COSMOS 2485 (GLONASS)",
"TLE_LINE1": "1 39155U 13019A   25077.26140453  .00000028  00000-0  00000-0 0  9993",
"TLE_LINE2": "2 39155  65.1717  88.9335 0025055 237.7047 122.0877  2.13104558 92563"
},
{
"CCSDS_OMM_VERS": "2.0",
"COMMENT": "GENERATED VIA SPACE-TRACK.ORG API",
"CREATION_DATE": "2025-03-17T22:46:20",
"ORIGINATOR": "18 SPCS",
"OBJECT_NAME": "COSMOS 2457 (GLONASS)",
"OBJECT_ID": "2009-070B",
"CENTER_NAME": "EARTH",
"REF_FRAME": "TEME",
"TIME_SYSTEM": "UTC",
"MEAN_ELEMENT_THEORY": "SGP4",
"EPOCH": "2025-03-17T17:28:18.136416",
"MEAN_MOTION": "2.13101197",
"ECCENTRICITY": "0.00026600",
"INCLINATION": "64.7341",
"RA_OF_ASC_NODE": "86.4276",
"ARG_OF_PERICENTER": "200.9156",
"MEAN_ANOMALY": "284.9735",
"EPHEMERIS_TYPE": "0",
"CLASSIFICATION_TYPE": "U",
"NORAD_CAT_ID": "36112",
"ELEMENT_SET_NO": "999",
"REV_AT_EPOCH": "11874",
"BSTAR": "0.00000000000000",
"MEAN_MOTION_DOT": "0.00000023",
"MEAN_MOTION_DDOT": "0.0000000000000",
"SEMIMAJOR_AXIS": "25508.089",
"PERIOD": "675.735",
"APOAPSIS": "19136.739",
"PERIAPSIS": "19123.168",
"OBJECT_TYPE": "PAYLOAD",
"RCS_SIZE": "LARGE",
"COUNTRY_CODE": "CIS",
"LAUNCH_DATE": "2009-12-14",
"SITE": "TTMTR",
"DECAY_DATE": null,
"FILE": "4672306",
"GP_ID": "283352242",
"TLE_LINE0": "0 COSMOS 2457 (GLONASS)",
"TLE_LINE1": "1 36112U 09070B   25076.72798769  .00000023  00000-0  00000+0 0  9998",
"TLE_LINE2": "2 36112  64.7341  86.4276 0002660 200.9156 284.9735  2.13101197118744"
},
{
"CCSDS_OMM_VERS": "2.0",
"COMMENT": "GENERATED VIA SPACE-TRACK.ORG API",
"CREATION_DATE": "2025-03-17T06:26:17",
"ORIGINATOR": "18 SPCS",
"OBJECT_NAME": "COSMOS 2557 (GLONASS)",
"OBJECT_ID": "2022-075A",
"CENTER_NAME": "EARTH",
"REF_FRAME": "TEME",
"TIME_SYSTEM": "UTC",
"MEAN_ELEMENT_THEORY": "SGP4",
"EPOCH": "2025-03-17T01:10:39.961632",
"MEAN_MOTION": "2.13101960",
"ECCENTRICITY": "0.00118520",
"INCLINATION": "64.5508",
"RA_OF_ASC_NODE": "330.5494",
"ARG_OF_PERICENTER": "285.8157",
"MEAN_ANOMALY": "74.1107",
"EPHEMERIS_TYPE": "0",
"CLASSIFICATION_TYPE": "U",
"NORAD_CAT_ID": "52984",
"ELEMENT_SET_NO": "999",
"REV_AT_EPOCH": "2096",
"BSTAR": "0.00000000000000",
"MEAN_MOTION_DOT": "-0.00000063",
"MEAN_MOTION_DDOT": "0.0000000000000",
"SEMIMAJOR_AXIS": "25508.028",
"PERIOD": "675.733",
"APOAPSIS": "19160.125",
"PERIAPSIS": "19099.661",
"OBJECT_TYPE": "PAYLOAD",
"RCS_SIZE": "LARGE",
"COUNTRY_CODE": "CIS",
"LAUNCH_DATE": "2022-07-07",
"SITE": "PKMTR",
"DECAY_DATE": null,
"FILE": "4671455",
"GP_ID": "283302458",
"TLE_LINE0": "0 COSMOS 2557 (GLONASS)",
"TLE_LINE1": "1 52984U 22075A   25076.04907363 -.00000063  00000-0  00000+0 0  9995",
"TLE_LINE2": "2 52984  64.5508 330.5494 0011852 285.8157  74.1107  2.13101960 20969"
}
]